[{"OBJECT_NAME":"KUIPER-00094","OBJECT_ID":"2025-151Z","EPOCH":"2026-03-09T21:52:26.217120","MEAN_MOTION":15.04318495,"ECCENTRICITY":0.00055168,"INCLINATION":51.8894,"RA_OF_ASC_NODE":261.3496,"ARG_OF_PERICENTER":288.9664,"MEAN_ANOMALY":71.071,"EPHEMERIS_TYPE":0,"CLASSIFICATION_TYPE":"U","NORAD_CAT_ID":64839,"ELEMENT_SET_NO":999,"REV_AT_EPOCH":3587,"BSTAR":0.00056295714,"MEAN_MOTION_DOT":7.667e-5,"MEAN_MOTION_DDOT":0},{"OBJECT_NAME":"CZ-2D DEB","OBJECT_ID":"2018-048F","EPOCH":"2026-03-09T12:09:53.706240","MEAN_MOTION":15.03119858,"ECCENTRICITY":0.00118256,"INCLINATION":98.3009,"RA_OF_ASC_NODE":268.7455,"ARG_OF_PERICENTER":183.5969,"MEAN_ANOMALY":176.5171,"EPHEMERIS_TYPE":0,"CLASSIFICATION_TYPE":"U","NORAD_CAT_ID":44619,"ELEMENT_SET_NO":999,"REV_AT_EPOCH":41667,"BSTAR":0.00065531565,"MEAN_MOTION_DOT":8.795e-5,"MEAN_MOTION_DDOT":0}]
